EUTELSAT 21B            
1 38992U 12062B   26012.23885125  .00000147  00000+0  00000+0 0  9997
2 38992   0.0736  27.5628 0003147 269.5423 282.2042  1.00273509 48262
EUTELSAT 70B            
1 39020U 12069A   26012.17714420 -.00000026  00000+0  00000+0 0  9996
2 39020   0.0613 354.2104 0003773 274.2169 337.5031  1.00270967 47944
EUTELSAT 117 WEST A     
1 39122U 13012A   26012.30536461  .00000005  00000+0  00000+0 0  9996
2 39122   0.0340 292.7475 0002825   6.6572 165.5032  1.00271519 46878
EUTELSAT 7B             
1 39163U 13022A   26012.09350284  .00000066  00000+0  00000+0 0  9992
2 39163   0.0717 336.5301 0005387 355.5711 180.1471  1.00275226 46388
EXPRESS-AT1             
1 39612U 14010A   26012.24561130  .00000096  00000+0  00000+0 0  9993
2 39612   0.0355 237.7570 0000639 357.9358  20.4690  1.00271407 43252
EXPRESS-AT2             
1 39613U 14010B   26012.19092429 -.00000263  00000+0  00000+0 0  9995
2 39613   0.0142 338.4844 0001450 315.3470  26.4328  1.00276687 42938
EUTELSAT 3B             
1 39773U 14030A   26012.23512456  .00000037  00000+0  00000+0 0  9994
2 39773   0.0604 355.0004 0003418 248.1752 316.2823  1.00271002 42502
EUTELSAT 115 WEST B     
1 40425U 15010B   26012.15613571 -.00000008  00000+0  00000+0 0  9999
2 40425   0.0012  42.3257 0000109 171.7544 198.8700  1.00270484 39823
